NORAD_CAT_ID,OBJECT_NAME,OBJECT_TYPE,EPOCH,MEAN_MOTION,ECCENTRICITY,INCLINATION,RA_OF_ASC_NODE,ARG_OF_PERICENTER,MEAN_ANOMALY,BSTAR,MEAN_MOTION_DOT,MEAN_MOTION_DDOT,TLE_LINE0,TLE_LINE1,TLE_LINE2,SEMIMAJOR_AXIS,PERIOD,APOGEE,PERIGEE,DECAYED
55652.0,STARLINK-5487,PAYLOAD,2023-10-27 03:39:16,14.9834425,0.000277,70.0008,204.1974,271.2067,88.8775,7.9563e-05,8.57e-06,0.0,0 STARLINK-5487,1 55652U 23021AA  23300.15227819  .00000857  00000-0  79563-4 0  9998,2 55652  70.0008 204.1974 0002770 271.2067  88.8775 14.98344250 38990,6950.149,96.106,573.939,570.089,0.0
55652.0,STARLINK-5487,PAYLOAD,2023-10-27 11:39:57,14.9833362,0.0002978,70.0012,203.3559,272.0466,88.0352,-7.7377e-05,-1.016e-05,0.0,0 STARLINK-5487,1 55652U 23021AA  23300.48608651 -.00001016  00000-0 -77377-4 0  9992,2 55652  70.0012 203.3559 0002978 272.0466  88.0352 14.98333620 39046,6950.182,96.107,574.116,569.977,0.0
55652.0,STARLINK-5487,PAYLOAD,2023-10-27 21:16:46,14.98323057,0.0002854,70.0008,202.347,274.5632,85.5201,-4.8129e-06,-1.5e-06,0.0,0 STARLINK-5487,1 55652U 23021AA  23300.88665307 -.00000150  00000-0 -48129-5 0  9999,2 55652  70.0008 202.3470 0002854 274.5632  85.5201 14.98323057 39102,6950.214,96.107,574.063,570.096,0.0
55652.0,STARLINK-5487,PAYLOAD,2023-10-28 03:41:19,14.98325613,0.0002725,70.0005,201.6731,269.1219,90.9628,-3.7295e-05,-5.38e-06,0.0,0 STARLINK-5487,1 55652U 23021AA  23301.15369300 -.00000538  00000-0 -37295-4 0  9995,2 55652  70.0005 201.6731 0002725 269.1219  90.9628 14.98325613 39449,6950.206,96.107,573.965,570.178,0.0
55652.0,STARLINK-5487,PAYLOAD,2023-10-28 19:42:39,14.98342018,0.0002426,70.0009,199.9899,264.1578,95.9305,-0.00029214,-3.578e-05,0.0,0 STARLINK-5487,1 55652U 23021AA  23301.82129211 -.00003578  00000-0 -29214-3 0  9992,2 55652  70.0009 199.9899 0002426 264.1578  95.9305 14.98342018 39241,6950.156,96.106,573.707,570.335,0.0
55652.0,STARLINK-5487,PAYLOAD,2023-10-28 21:18:47,14.98329832,0.0002691,70.001,199.8216,269.244,90.8411,-9.0969e-05,-1.178e-05,0.0,0 STARLINK-5487,1 55652U 23021AA  23301.88805315 -.00001178  00000-0 -90969-4 0  9994,2 55652  70.0010 199.8216 0002691 269.2440  90.8411 14.98329832 39558,6950.193,96.107,573.929,570.188,0.0
55652.0,STARLINK-5487,PAYLOAD,2023-10-29 10:07:51,14.98364504,0.0001998,70.0032,198.474,282.339,77.7545,-0.00067642,-8.161e-05,0.0,0 STARLINK-5487,1 55652U 23021AA  23302.42212460 -.00008161  00000-0 -67642-3 0  9998,2 55652  70.0032 198.4740 0001998 282.3390  77.7545 14.98364504 39331,6950.086,96.105,573.34,570.563,0.0
55652.0,STARLINK-5487,PAYLOAD,2023-10-29 21:20:48,14.9832582,0.0002694,70.0005,197.297,268.8765,91.2086,5.2737e-05,5.36e-06,0.0,0 STARLINK-5487,1 55652U 23021AA  23302.88945111  .00000536  00000-0  52737-4 0  9990,2 55652  70.0005 197.2970 0002694 268.8765  91.2086 14.98325820 39409,6950.206,96.107,573.943,570.198,0.0
55652.0,STARLINK-5487,PAYLOAD,2023-10-29 22:56:56,14.98332292,0.0002254,70.0013,197.1278,260.9789,99.1115,8.8888e-05,9.68e-06,0.0,0 STARLINK-5487,1 55652U 23021AA  23302.95620637  .00000968  00000-0  88888-4 0  9996,2 55652  70.0013 197.1278 0002254 260.9789  99.1115 14.98332292 39714,6950.186,96.107,573.617,570.484,0.0
55652.0,STARLINK-5487,PAYLOAD,2023-10-30 22:58:57,14.98329278,0.0002426,70.0011,194.6029,264.6264,95.4618,4.7814e-05,4.78e-06,0.0,0 STARLINK-5487,1 55652U 23021AA  23303.95761093  .00000478  00000-0  47814-4 0  9999,2 55652  70.0011 194.6029 0002426 264.6264  95.4618 14.98329278 39861,6950.195,96.107,573.746,570.374,0.0
55652.0,STARLINK-5487,PAYLOAD,2023-10-31 02:11:13,14.98326916,0.0002586,70.0006,194.2662,264.7406,95.3458,3.6539e-06,-4.9e-07,0.0,0 STARLINK-5487,1 55652U 23021AA  23304.09113364 -.00000049  00000-0  36539-5 0  9995,2 55652  70.0006 194.2662 0002586 264.7406  95.3458 14.98326916 39586,6950.202,96.107,573.865,570.27,0.0
55652.0,STARLINK-5487,PAYLOAD,2023-10-31 10:11:54,14.98331285,0.000254,70.0006,193.4267,272.3579,87.729,-9.1933e-05,-1.19e-05,0.0,0 STARLINK-5487,1 55652U 23021AA  23304.42493455 -.00001190  00000-0 -91933-4 0  9991,2 55652  70.0006 193.4267 0002540 272.3579  87.7290 14.98331285 39937,6950.189,96.107,573.819,570.289,0.0
55652.0,STARLINK-5487,PAYLOAD,2023-10-31 21:24:50,14.98333801,0.0002736,70.0009,192.2482,268.0031,92.0814,5.909e-05,6.12e-06,0.0,0 STARLINK-5487,1 55652U 23021AA  23304.89224805  .00000612  00000-0  59090-4 0  9997,2 55652  70.0009 192.2482 0002736 268.0031  92.0814 14.98333801 39700,6950.181,96.107,573.948,570.145,0.0
55652.0,STARLINK-5487,PAYLOAD,2023-11-01 10:13:55,14.98327017,0.0002468,70.0011,190.9009,269.9795,90.1081,0.00010653,1.178e-05,0.0,0 STARLINK-5487,1 55652U 23021AA  23305.42633128  .00001178  00000-0  10653-3 0  9998,2 55652  70.0011 190.9009 0002468 269.9795  90.1081 14.98327017 40082,6950.202,96.107,573.782,570.352,0.0
55652.0,STARLINK-5487,PAYLOAD,2023-11-01 21:26:51,14.98326678,0.0002892,70.0003,189.7224,272.6533,87.4295,7.5253e-05,8.05e-06,0.0,0 STARLINK-5487,1 55652U 23021AA  23305.89365082  .00000805  00000-0  75253-4 0  9994,2 55652  70.0003 189.7224 0002892 272.6533  87.4295 14.98326678 39851,6950.203,96.107,574.078,570.058,0.0
55652.0,STARLINK-5487,PAYLOAD,2023-11-01 23:02:59,14.98327192,0.0002705,70.0004,189.5547,267.0893,92.9957,0.00016054,1.823e-05,0.0,0 STARLINK-5487,1 55652U 23021AA  23305.96040788  .00001823  00000-0  16054-3 0  9999,2 55652  70.0004 189.5547 0002705 267.0893  92.9957 14.98327192 40162,6950.202,96.107,573.947,570.187,0.0
55652.0,STARLINK-5487,PAYLOAD,2023-11-02 02:15:15,14.98333813,0.0002831,70.0003,189.2174,271.463,88.6204,0.00011606,1.292e-05,0.0,0 STARLINK-5487,1 55652U 23021AA  23306.09392501  .00001292  00000-0  11606-3 0  9995,2 55652  70.0003 189.2174 0002831 271.4630  88.6204 14.98333813 39883,6950.181,96.107,574.014,570.079,0.0
55652.0,STARLINK-5487,PAYLOAD,2023-11-02 10:15:56,14.98327864,0.000245,70.0016,188.3769,272.9245,87.1634,1.8879e-05,1.32e-06,0.0,0 STARLINK-5487,1 55652U 23021AA  23306.42773234  .00000132  00000-0  18879-4 0  9990,2 55652  70.0016 188.3769 0002450 272.9245  87.1634 14.98327864 39938,6950.199,96.107,573.767,570.362,0.0
55652.0,STARLINK-5487,PAYLOAD,2023-11-02 21:28:52,14.98329005,0.0002848,70.0008,187.1983,270.274,89.8093,-4.7506e-06,-1.5e-06,0.0,0 STARLINK-5487,1 55652U 23021AA  23306.89505063 -.00000150  00000-0 -47506-5 0  9996,2 55652  70.0008 187.1983 0002848 270.2740  89.8093 14.98329005 40306,6950.196,96.107,574.04,570.082,0.0
55652.0,STARLINK-5487,PAYLOAD,2023-11-03 02:17:16,14.98333788,0.0002624,70.0009,186.6938,268.9695,91.1163,-7.3255e-06,-1.8e-06,0.0,0 STARLINK-5487,1 55652U 23021AA  23307.09532733 -.00000180  00000-0 -73255-5 0  9996,2 55652  70.0009 186.6938 0002624 268.9695  91.1163 14.98333788 40033,6950.181,96.107,573.87,570.222,0.0
55652.0,STARLINK-5487,PAYLOAD,2023-11-03 21:30:53,14.98329207,0.0002786,70.0007,184.6737,270.5751,89.5088,-1.6308e-05,-2.88e-06,0.0,0 STARLINK-5487,1 55652U 23021AA  23307.89644926 -.00000288  00000-0 -16308-4 0  9996,2 55652  70.0007 184.6737 0002786 270.5751  89.5088 14.98329207 40451,6950.195,96.107,573.997,570.124,0.0
55652.0,STARLINK-5487,PAYLOAD,2023-11-04 02:19:17,14.98331207,0.000271,70.0008,184.1688,272.6864,87.3985,1.943e-05,1.39e-06,0.0,0 STARLINK-5487,1 55652U 23021AA  23308.09672713  .00000139  00000-0  19430-4 0  9996,2 55652  70.0008 184.1688 0002710 272.6864  87.3985 14.98331207 40182,6950.189,96.107,573.938,570.171,0.0
55652.0,STARLINK-5487,PAYLOAD,2023-11-04 08:43:49,14.98345318,0.0002595,70.0012,183.4956,268.1033,91.9829,-0.00030413,-3.721e-05,0.0,0 STARLINK-5487,1 55652U 23021AA  23308.36376541 -.00003721  00000-0 -30413-3 0  9991,2 55652  70.0012 183.4956 0002595 268.1033  91.9829 14.98345318 40520,6950.146,96.106,573.814,570.207,0.0
55652.0,STARLINK-5487,PAYLOAD,2023-11-04 21:32:54,14.98326665,0.0002864,70.0009,182.1492,266.394,93.6891,3.002e-05,2.65e-06,0.0,0 STARLINK-5487,1 55652U 23021AA  23308.89784898  .00000265  00000-0  30020-4 0  9990,2 55652  70.0009 182.1492 0002864 266.3940  93.6891 14.98326665 40604,6950.203,96.107,574.059,570.078,0.0
55652.0,STARLINK-5487,PAYLOAD,2023-11-05 08:45:50,14.98322976,0.0002833,69.9997,180.9715,267.4983,92.5851,0.00025735,2.978e-05,0.0,0 STARLINK-5487,1 55652U 23021AA  23309.36516579  .00002978  00000-0  25735-3 0  9991,2 55652  69.9997 180.9715 0002833 267.4983  92.5851 14.98322976 40375,6950.215,96.107,574.049,570.111,0.0
55652.0,STARLINK-5487,PAYLOAD,2023-11-05 19:58:45,14.98343313,0.000276,70.0,179.7931,267.856,92.2283,0.00011329,1.259e-05,0.0,0 STARLINK-5487,1 55652U 23021AA  23309.83247375  .00001259  00000-0  11329-3 0  9993,2 55652  70.0000 179.7931 0002760 267.8560  92.2283 14.98343313 40445,6950.152,96.106,573.935,570.098,0.0
55652.0,STARLINK-5487,PAYLOAD,2023-11-05 21:34:53,14.98348749,0.0002741,69.9998,179.6241,264.9318,95.1528,0.00016841,1.918e-05,0.0,0 STARLINK-5487,1 55652U 23021AA  23309.89922806  .00001918  00000-0  16841-3 0  9994,2 55652  69.9998 179.6241 0002741 264.9318  95.1528 14.98348749 40755,6950.135,96.106,573.905,570.095,0.0
55652.0,STARLINK-5487,PAYLOAD,2023-11-06 02:23:16,14.98352921,0.0002648,70.0,179.1182,264.8545,95.2312,0.00022998,2.654e-05,0.0,0 STARLINK-5487,1 55652U 23021AA  23310.09950098  .00002654  00000-0  22998-3 0  9990,2 55652  70.0000 179.1182 0002648 264.8545  95.2312 14.98352921 40487,6950.122,96.106,573.827,570.147,0.0
55652.0,STARLINK-5487,PAYLOAD,2023-11-06 08:47:51,14.98332195,0.0001396,70.0012,178.4441,283.8236,76.2768,-2.9393e-05,-4.43e-06,0.0,0 STARLINK-5487,1 55652U 23021AA  23310.36656392 -.00000443  00000-0 -29393-4 0  9993,2 55652  70.0012 178.4441 0001396 283.8236  76.2768 14.98332195 40527,6950.186,96.107,573.021,571.081,0.0
55652.0,STARLINK-5487,PAYLOAD,2023-11-06 21:36:54,14.98335084,0.0002805,69.9998,177.0979,260.3319,99.7524,2.4163e-05,1.95e-06,0.0,0 STARLINK-5487,1 55652U 23021AA  23310.90063372  .00000195  00000-0  24163-4 0  9995,2 55652  69.9998 177.0979 0002805 260.3319  99.7524 14.98335084 40908,6950.177,96.107,573.992,570.093,0.0
